*******************************************************************************
JPL/HORIZONS                 481 Emita (A902 CB)           2020-Jun-22 09:09:53
Rec #:     481 (+COV) Soln.date: 2020-May-20_01:06:36   # obs: 3765 (1902-2020)
 
IAU76/J2000 helio. ecliptic osc. elements (au, days, deg., period=Julian yrs):
 
  EPOCH=  2455948.5 ! 2012-Jan-22.00 (TDB)         Residual RMS= .34994
   EC= .1550123309498896   QR= 2.317046447961135   TP= 2455290.2377367788
   OM= 66.87869160359591   W=  349.3037723729304   IN= 9.837530735635697
   A= 2.742106817447211    MA= 142.8816575456504   ADIST= 3.167167186933287
   PER= 4.54083            N= .217058856           ANGMOM= .028141168
   DAN= 2.32246            DDN= 3.1571             L= 56.3361979
   B= -1.8172097           MOID= 1.32907999        TP= 2010-Apr-03.7377367788
 
Asteroid physical parameters (km, seconds, rotational period in hours):
   GM= n.a.                RAD= 50.9145            ROTPER= 14.412
   H= 8.9                  G= .150                 B-V= n.a.
                           ALBEDO= .032            STYP= Ch
 
ASTEROID comments: 
1: soln ref.= JPL#79, OCC=0
2: source=ORB
*******************************************************************************
 
 
*******************************************************************************
Ephemeris / WWW_USER Mon Jun 22 09:09:53 2020 Pasadena, USA      / Horizons
*******************************************************************************
Target body name: 481 Emita (A902 CB)             {source: JPL#79}
Center body name: Solar System Barycenter (0)     {source: DE431}
Center-site name: BODY CENTER
*******************************************************************************
Start time      : A.D. 1969-Jun-28 00:00:00.0000 TDB
Stop  time      : A.D. 2071-May-04 00:00:00.0000 TDB
Step-size       : 7200 minutes
*******************************************************************************
Center geodetic : 0.00000000,0.00000000,0.0000000 {E-lon(deg),Lat(deg),Alt(km)}
Center cylindric: 0.00000000,0.00000000,0.0000000 {E-lon(deg),Dxy(km),Dz(km)}
Center radii    : (undefined)                                                  
Small perturbers: Yes                             {source: SB431-N16}
Output units    : AU-D
Output type     : GEOMETRIC cartesian states
Output format   : 2 (position and velocity)
Reference frame : Ecliptic of J2000.0
*******************************************************************************
Initial IAU76/J2000 heliocentric ecliptic osculating elements (au, days, deg.):
  EPOCH=  2455948.5 ! 2012-Jan-22.00 (TDB)         Residual RMS= .34994        
   EC= .1550123309498896   QR= 2.317046447961135   TP= 2455290.2377367788      
   OM= 66.87869160359591   W=  349.3037723729304   IN= 9.837530735635697       
  Equivalent ICRF heliocentric equatorial cartesian coordinates (au, au/d):
   X=-2.704239777980314E+00  Y=-1.490717438425555E+00  Z=-2.862122591353777E-01
  VX= 3.542034425590547E-03 VY=-7.176950071732554E-03 VZ=-4.344206215824833E-03
Asteroid physical parameters (km, seconds, rotational period in hours):        
   GM= n.a.                RAD= 50.9145            ROTPER= 14.412              
   H= 8.9                  G= .150                 B-V= n.a.                   
                           ALBEDO= .032            STYP= Ch                    
*******************************************************************************
            JDTDB,            Calendar Date (TDB),        delta-T,                      X,                      Y,                      Z,                     VX,                     VY,                     VZ,
******************************************************************************************************************************************************************************************************************
$$SOE
2454680.500000000, A.D. 2008-Aug-02 00:00:00.0000,      65.183225,  9.699152348350455E-02, -3.046042798925669E+00, -2.225468126000066E-01,  9.036610763625649E-03,  1.370247049617883E-03, -1.352243038559762E-03,
2454685.500000000, A.D. 2008-Aug-07 00:00:00.0000,      65.183103,  1.421603214514523E-01, -3.038798037567373E+00, -2.292789326750219E-01,  9.030513845742738E-03,  1.527722083218806E-03, -1.340537351528575E-03,
2454690.500000000, A.D. 2008-Aug-12 00:00:00.0000,      65.182987,  1.872926977891127E-01, -3.030764952555131E+00, -2.359515081743542E-01,  9.022038427812424E-03,  1.685572418481042E-03, -1.328424900032749E-03,
2454695.500000000, A.D. 2008-Aug-17 00:00:00.0000,      65.182876,  2.323767045186655E-01, -3.021941729311470E+00, -2.425625006550751E-01,  9.011162274623381E-03,  1.843773174194874E-03, -1.315903836571668E-03,
2454700.500000000, A.D. 2008-Aug-22 00:00:00.0000,      65.182773,  2.774002818298517E-01, -3.012326679319608E+00, -2.491098624504389E-01,  8.997862889695514E-03,  2.002298802977497E-03, -1.302972319636719E-03,
2454705.500000000, A.D. 2008-Aug-27 00:00:00.0000,      65.182680,  3.223512567935655E-01, -3.001918243519489E+00, -2.555915367077429E-01,  8.982117523390997E-03,  2.161123065119366E-03, -1.289628516899259E-03,
2454710.500000000, A.D. 2008-Sep-01 00:00:00.0000,      65.182598,  3.672173421180920E-01, -2.990714995835869E+00, -2.620054574425510E-01,  8.963903181868935E-03,  2.320219001918259E-03, -1.275870608568577E-03,
2454715.500000000, A.D. 2008-Sep-06 00:00:00.0000,      65.182526,  4.119861349523130E-01, -2.978715646841009E+00, -2.683495496101446E-01,  8.943196636924552E-03,  2.479558908501778E-03, -1.261696790926353E-03,
2454720.500000000, A.D. 2008-Sep-11 00:00:00.0000,      65.182463,  4.566451157404027E-01, -2.965919047554519E+00, -2.746217291950994E-01,  8.919974436753195E-03,  2.639114306153039E-03, -1.247105280043878E-03,
2454725.500000000, A.D. 2008-Sep-16 00:00:00.0000,      65.182410,  5.011816471327653E-01, -2.952324193382743E+00, -2.808199033199198E-01,  8.894212917694155E-03,  2.798855914161285E-03, -1.232094315689118E-03,
2454730.500000000, A.D. 2008-Sep-21 00:00:00.0000,      65.182368,  5.455829729582841E-01, -2.937930228200099E+00, -2.869419703737044E-01,  8.865888217022173E-03,  2.958753621197249E-03, -1.216662165432643E-03,
2454735.500000000, A.D. 2008-Sep-26 00:00:00.0000,      65.182340,  5.898362172632633E-01, -2.922736448574780E+00, -2.929858201618528E-01,  8.834976286839370E-03,  3.118776456181740E-03, -1.200807128960880E-03,
2454740.500000000, A.D. 2008-Oct-01 00:00:00.0000,      65.182325,  6.339283834226115E-01, -2.906742308141443E+00, -2.989493340778648E-01,  8.801452909076442E-03,  3.278892558617853E-03, -1.184527542598123E-03,
2454745.500000000, A.D. 2008-Oct-06 00:00:00.0000,      65.182322,  6.778463533287555E-01, -2.889947422123550E+00, -3.048303852982521E-01,  8.765293711582174E-03,  3.439069148414101E-03, -1.167821784027607E-03,
2454750.500000000, A.D. 2008-Oct-11 00:00:00.0000,      65.182330,  7.215768866637197E-01, -2.872351572007655E+00, -3.106268390015191E-01,  8.726474185302518E-03,  3.599272495298839E-03, -1.150688277194433E-03,
2454755.500000000, A.D. 2008-Oct-16 00:00:00.0000,      65.182349,  7.651066202599398E-01, -2.853954710371367E+00, -3.163365526120783E-01,  8.684969702613838E-03,  3.759467887966747E-03, -1.133125497374961E-03,
2454760.500000000, A.D. 2008-Oct-21 00:00:00.0000,      65.182381,  8.084220675558750E-01, -2.834756965865902E+00, -3.219573760699111E-01,  8.640755536932245E-03,  3.919619603123615E-03, -1.115131976405437E-03,
2454765.500000000, A.D. 2008-Oct-26 00:00:00.0000,      65.182427,  8.515096181532579E-01, -2.814758648353288E+00, -3.274871521267873E-01,  8.593806883806499E-03,  4.079690874597222E-03, -1.096706308079934E-03,
2454770.500000000, A.D. 2008-Oct-31 00:00:00.0000,      65.182485,  8.943555374841610E-01, -2.793960254197904E+00, -3.329237166699853E-01,  8.544098883802484E-03,  4.239643862454894E-03, -1.077847153767349E-03,
2454775.500000000, A.D. 2008-Nov-05 00:00:00.0000,      65.182554,  9.369459665974655E-01, -2.772362471713233E+00, -3.382648990748213E-01,  8.491606647393103E-03,  4.399439621717954E-03, -1.058553248327916E-03,
2454780.500000000, A.D. 2008-Nov-10 00:00:00.0000,      65.182633,  9.792669220747245E-01, -2.749966186766769E+00, -3.435085225876144E-01,  8.436305281803332E-03,  4.559038070364143E-03, -1.038823406375912E-03,
2454785.500000000, A.D. 2008-Nov-15 00:00:00.0000,      65.182721,  1.021304296084826E+00, -2.726772488546761E+00, -3.486524047408444E-01,  8.378169919662880E-03,  4.718397956609091E-03, -1.018656528891381E-03,
2454790.500000000, A.D. 2008-Nov-20 00:00:00.0000,      65.182819,  1.063043856586266E+00, -2.702782675494012E+00, -3.536943578022056E-01,  8.317175749393755E-03,  4.877476825631592E-03, -9.980516101642191E-04,
2454795.500000000, A.D. 2008-Nov-25 00:00:00.0000,      65.182929,  1.104471247685697E+00, -2.677998261401089E+00, -3.586321892591764E-01,  8.253298047338865E-03,  5.036230985914478E-03, -9.770077450541714E-04,
2454800.500000000, A.D. 2008-Nov-30 00:00:00.0000,      65.183047,  1.145571990161584E+00, -2.652420981680462E+00, -3.634637023406567E-01,  8.186512211688805E-03,  5.194615475354508E-03, -9.555241365552013E-04,
2454805.500000000, A.D. 2008-Dec-05 00:00:00.0000,      65.183171,  1.186331482162149E+00, -2.626052799802379E+00, -3.681866965771694E-01,  8.116793798282099E-03,  5.352584027275270E-03, -9.336001036582176E-04,
2454810.500000000, A.D. 2008-Dec-10 00:00:00.0000,      65.183301,  1.226735000087158E+00, -2.598895913902677E+00, -3.727989684011213E-01,  8.044118558357830E-03,  5.510089036470365E-03, -9.112350895098144E-04,
2454815.500000000, A.D. 2008-Dec-15 00:00:00.0000,      65.183435,  1.266767699663532E+00, -2.570952763559990E+00, -3.772983117885910E-01,  7.968462478344802E-03,  5.667081525415684E-03, -8.884286698663880E-04,
